[
    {
        "Altitude(m)": 705459.374534221,
        "Argument of Periapsis(deg)": 0.007973084830638947,
        "Eccentricity": 0.0,
        "Inclination(deg)": 45.0,
        "Latitude(deg)": 36.58558027345366,
        "Longitude(deg)": 132.0530027553296,
        "Mean Anomaly(deg)": 57.16415165323658,
        "RAAN(deg)": 184.99247364097926,
        "Satellite Name": "Constellation 1 817",
        "Satellite Number": 817,
        "Semi-Major Axis(m)": 7083131.272910544,
        "Time(s)": 133
    },
    {
        "Altitude(m)": 705465.1879607297,
        "Argument of Periapsis(deg)": 0.008033032836884352,
        "Eccentricity": 0.0,
        "Inclination(deg)": 45.0,
        "Latitude(deg)": 36.61461759876812,
        "Longitude(deg)": 132.1152474883345,
        "Mean Anomaly(deg)": 57.22485279348646,
        "RAAN(deg)": 184.9924170518137,
        "Satellite Name": "Constellation 1 817",
        "Satellite Number": 817,
        "Semi-Major Axis(m)": 7083131.272910544,
        "Time(s)": 134
    },
    {
        "Altitude(m)": 705470.9978453009,
        "Argument of Periapsis(deg)": 0.008092980843129758,
        "Eccentricity": 0.0,
        "Inclination(deg)": 45.0,
        "Latitude(deg)": 36.643617818179344,
        "Longitude(deg)": 132.17754193152493,
        "Mean Anomaly(deg)": 57.285553933736324,
        "RAAN(deg)": 184.9923604626481,
        "Satellite Name": "Constellation 1 817",
        "Satellite Number": 817,
        "Semi-Major Axis(m)": 7083131.272910544,
        "Time(s)": 135
    },
    {
        "Altitude(m)": 705476.8041515959,
        "Argument of Periapsis(deg)": 0.008152928849375162,
        "Eccentricity": 0.0,
        "Inclination(deg)": 45.0,
        "Latitude(deg)": 36.67258086545927,
        "Longitude(deg)": 132.23988611116883,
        "Mean Anomaly(deg)": 57.346255073986306,
        "RAAN(deg)": 184.99230387348254,
        "Satellite Name": "Constellation 1 817",
        "Satellite Number": 817,
        "Semi-Major Axis(m)": 7083131.272910544,
        "Time(s)": 136
    },
    {
        "Altitude(m)": 705482.6068433162,
        "Argument of Periapsis(deg)": 0.008212876855620568,
        "Eccentricity": 0.0,
        "Inclination(deg)": 45.0,
        "Latitude(deg)": 36.701506674328776,
        "Longitude(deg)": 132.30228005326018,
        "Mean Anomaly(deg)": 57.40695621423615,
        "RAAN(deg)": 184.992247284317,
        "Satellite Name": "Constellation 1 817",
        "Satellite Number": 817,
        "Semi-Major Axis(m)": 7083131.272910544,
        "Time(s)": 137
    },
    {
        "Altitude(m)": 705488.40588419,
        "Argument of Periapsis(deg)": 0.008272824861865974,
        "Eccentricity": 0.0,
        "Inclination(deg)": 45.0,
        "Latitude(deg)": 36.730395178458224,
        "Longitude(deg)": 132.3647237835186,
        "Mean Anomaly(deg)": 57.467657354486064,
        "RAAN(deg)": 184.9921906951514,
        "Satellite Name": "Constellation 1 817",
        "Satellite Number": 817,
        "Semi-Major Axis(m)": 7083131.272910544,
        "Time(s)": 138
    },
    {
        "Altitude(m)": 705494.2012379754,
        "Argument of Periapsis(deg)": 0.00833277286811138,
        "Eccentricity": 0.0,
        "Inclination(deg)": 45.0,
        "Latitude(deg)": 36.75924631146751,
        "Longitude(deg)": 132.4272173273871,
        "Mean Anomaly(deg)": 57.528358494736,
        "RAAN(deg)": 184.99213410598585,
        "Satellite Name": "Constellation 1 817",
        "Satellite Number": 817,
        "Semi-Major Axis(m)": 7083131.272910544,
        "Time(s)": 139
    },
    {
        "Altitude(m)": 705499.992868478,
        "Argument of Periapsis(deg)": 0.008392720874356788,
        "Eccentricity": 0.0,
        "Inclination(deg)": 45.0,
        "Latitude(deg)": 36.7880600069265,
        "Longitude(deg)": 132.4897607100313,
        "Mean Anomaly(deg)": 57.58905963498586,
        "RAAN(deg)": 184.99207751682025,
        "Satellite Name": "Constellation 1 817",
        "Satellite Number": 817,
        "Semi-Major Axis(m)": 7083131.272910544,
        "Time(s)": 140
    },
    {
        "Altitude(m)": 705505.7807395208,
        "Argument of Periapsis(deg)": 0.008452668880602192,
        "Eccentricity": 0.0,
        "Inclination(deg)": 45.0,
        "Latitude(deg)": 36.81683619835553,
        "Longitude(deg)": 132.55235378824057,
        "Mean Anomaly(deg)": 57.64976077523574,
        "RAAN(deg)": 184.9920209276547,
        "Satellite Name": "Constellation 1 817",
        "Satellite Number": 817,
        "Semi-Major Axis(m)": 7083131.272910544,
        "Time(s)": 141
    },
    {
        "Altitude(m)": 705511.5648149747,
        "Argument of Periapsis(deg)": 0.008512616886847598,
        "Eccentricity": 0.0,
        "Inclination(deg)": 45.0,
        "Latitude(deg)": 36.84557481922498,
        "Longitude(deg)": 132.61499692281546,
        "Mean Anomaly(deg)": 57.71046191548563,
        "RAAN(deg)": 184.99196433848914,
        "Satellite Name": "Constellation 1 817",
        "Satellite Number": 817,
        "Semi-Major Axis(m)": 7083131.272910544,
        "Time(s)": 142
    },
    {
        "Altitude(m)": 705517.3450587387,
        "Argument of Periapsis(deg)": 0.008572564893093004,
        "Eccentricity": 0.0,
        "Inclination(deg)": 45.0,
        "Latitude(deg)": 36.87427580295655,
        "Longitude(deg)": 132.67768996998305,
        "Mean Anomaly(deg)": 57.7711630557356,
        "RAAN(deg)": 184.99190774932356,
        "Satellite Name": "Constellation 1 817",
        "Satellite Number": 817,
        "Semi-Major Axis(m)": 7083131.272910544,
        "Time(s)": 143
    },
    {
        "Altitude(m)": 705523.1214347476,
        "Argument of Periapsis(deg)": 0.008632512899338408,
        "Eccentricity": 0.0,
        "Inclination(deg)": 45.0,
        "Latitude(deg)": 36.90293908292296,
        "Longitude(deg)": 132.74043295378453,
        "Mean Anomaly(deg)": 57.83186419598548,
        "RAAN(deg)": 184.991851160158,
        "Satellite Name": "Constellation 1 817",
        "Satellite Number": 817,
        "Semi-Major Axis(m)": 7083131.272910544,
        "Time(s)": 144
    },
    {
        "Altitude(m)": 705528.8939069693,
        "Argument of Periapsis(deg)": 0.008692460905583814,
        "Eccentricity": 0.0,
        "Inclination(deg)": 45.0,
        "Latitude(deg)": 36.93156459244854,
        "Longitude(deg)": 132.80322589797635,
        "Mean Anomaly(deg)": 57.89256533623537,
        "RAAN(deg)": 184.99179457099245,
        "Satellite Name": "Constellation 1 817",
        "Satellite Number": 817,
        "Semi-Major Axis(m)": 7083131.272910544,
        "Time(s)": 145
    },
    {
        "Altitude(m)": 705534.6624394107,
        "Argument of Periapsis(deg)": 0.00875240891182922,
        "Eccentricity": 0.0,
        "Inclination(deg)": 45.0,
        "Latitude(deg)": 36.960152264809274,
        "Longitude(deg)": 132.86606882602916,
        "Mean Anomaly(deg)": 57.95326647648528,
        "RAAN(deg)": 184.99173798182684,
        "Satellite Name": "Constellation 1 817",
        "Satellite Number": 817,
        "Semi-Major Axis(m)": 7083131.272910544,
        "Time(s)": 146
    },
    {
        "Altitude(m)": 705540.4269961128,
        "Argument of Periapsis(deg)": 0.008812356918074627,
        "Eccentricity": 0.0,
        "Inclination(deg)": 45.0,
        "Latitude(deg)": 36.98870203323337,
        "Longitude(deg)": 132.9289617611259,
        "Mean Anomaly(deg)": 58.013967616735165,
        "RAAN(deg)": 184.9916813926613,
        "Satellite Name": "Constellation 1 817",
        "Satellite Number": 817,
        "Semi-Major Axis(m)": 7083131.272910544,
        "Time(s)": 147
    },
    {
        "Altitude(m)": 705546.1875411486,
        "Argument of Periapsis(deg)": 0.008872304924320031,
        "Eccentricity": 0.0,
        "Inclination(deg)": 45.0,
        "Latitude(deg)": 37.01721383090169,
        "Longitude(deg)": 132.99190455806377,
        "Mean Anomaly(deg)": 58.07466875698503,
        "RAAN(deg)": 184.9916248034957,
        "Satellite Name": "Constellation 1 817",
        "Satellite Number": 817,
        "Semi-Major Axis(m)": 7083131.272910544,
        "Time(s)": 148
    },
    {
        "Altitude(m)": 705551.9440386283,
        "Argument of Periapsis(deg)": 0.008932252930565437,
        "Eccentricity": 0.0,
        "Inclination(deg)": 45.0,
        "Latitude(deg)": 37.04568759094734,
        "Longitude(deg)": 133.05489757564146,
        "Mean Anomaly(deg)": 58.13536989723496,
        "RAAN(deg)": 184.99156821433016,
        "Satellite Name": "Constellation 1 817",
        "Satellite Number": 817,
        "Semi-Major Axis(m)": 7083131.272910544,
        "Time(s)": 149
    },
    {
        "Altitude(m)": 705557.6964527022,
        "Argument of Periapsis(deg)": 0.008992200936810843,
        "Eccentricity": 0.0,
        "Inclination(deg)": 45.0,
        "Latitude(deg)": 37.07412324645693,
        "Longitude(deg)": 133.11794066807394,
        "Mean Anomaly(deg)": 58.196071037484856,
        "RAAN(deg)": 184.99151162516455,
        "Satellite Name": "Constellation 1 817",
        "Satellite Number": 817,
        "Semi-Major Axis(m)": 7083131.272910544,
        "Time(s)": 150
    },
    {
        "Altitude(m)": 705563.444747548,
        "Argument of Periapsis(deg)": 0.009052148943056249,
        "Eccentricity": 0.0,
        "Inclination(deg)": 45.0,
        "Latitude(deg)": 37.10252073047053,
        "Longitude(deg)": 133.18103385738084,
        "Mean Anomaly(deg)": 58.25677217773477,
        "RAAN(deg)": 184.991455035999,
        "Satellite Name": "Constellation 1 817",
        "Satellite Number": 817,
        "Semi-Major Axis(m)": 7083131.272910544,
        "Time(s)": 151
    }
]